start=new Date('2022-10-17T00:00:00.000Z').valueOf();
sats=[{"EPOCH":"2022-10-16T19:09:13.082976","ARG_OF_PERICENTER":"55.2123","BSTAR":"-0.00009223500000","RA_OF_ASC_NODE":"225.2099","PERIOD":"95.438","OBJECT_NAME":"STARLINK-3892","GP_ID":"215347648","INCLINATION":"53.2191","LAUNCH_DATE":"2022-05-06","DECAY_DATE":null,"MEAN_MOTION":"15.08830200","MEAN_MOTION_DOT":"-0.00001755","EPHEMERIS_TYPE":"0","PERIAPSIS":"538.598","OBJECT_TYPE":"PAYLOAD","TLE_LINE2":"2 52488  53.2191 225.2099 0001702  55.2123 304.9029 15.08830200 25075","MEAN_ELEMENT_THEORY":"SGP4","APOAPSIS":"540.953","ECCENTRICITY":"0.00017020","SEMIMAJOR_AXIS":"6917.910","SITE":"AFETR","CLASSIFICATION_TYPE":"U","NORAD_CAT_ID":"52488","ELEMENT_SET_NO":"999","FILE":"3617955","TLE_LINE1":"1 52488U 22049AP  22289.79806809 -.00001755  00000-0 -92235-4 0  9999","TIME_SYSTEM":"UTC","OBJECT_ID":"2022-049AP","RCS_SIZE":"LARGE","REF_FRAME":"TEME","MEAN_ANOMALY":"304.9029","MEAN_MOTION_DDOT":"0.0000000000000","COUNTRY_CODE":"US","REV_AT_EPOCH":"2507","CENTER_NAME":"EARTH"},{"CLASSIFICATION_TYPE":"U","SITE":"AFETR","SEMIMAJOR_AXIS":"6917.896","FILE":"3617955","TLE_LINE1":"1 52489U 22049AQ  22289.80541141  .00000747  00000-0  65027-4 0  9994","ELEMENT_SET_NO":"999","NORAD_CAT_ID":"52489","MEAN_ELEMENT_THEORY":"SGP4","APOAPSIS":"541.191","ECCENTRICITY":"0.00020680","REV_AT_EPOCH":"2507","COUNTRY_CODE":"US","CENTER_NAME":"EARTH","OBJECT_ID":"2022-049AQ","TIME_SYSTEM":"UTC","MEAN_ANOMALY":"325.1097","MEAN_MOTION_DDOT":"0.0000000000000","REF_FRAME":"TEME","RCS_SIZE":"LARGE","OBJECT_NAME":"STARLINK-3923","GP_ID":"215348899","PERIOD":"95.438","INCLINATION":"53.2207","ARG_OF_PERICENTER":"35.0030","BSTAR":"0.00006502700000","EPOCH":"2022-10-16T19:19:47.545824","RA_OF_ASC_NODE":"225.1816","OBJECT_TYPE":"PAYLOAD","PERIAPSIS":"538.330","EPHEMERIS_TYPE":"0","TLE_LINE2":"2 52489  53.2207 225.1816 0002068  35.0030 325.1097 15.08834940 25074","DECAY_DATE":null,"LAUNCH_DATE":"2022-05-06","MEAN_MOTION_DOT":"0.00000747","MEAN_MOTION":"15.08834940"},{"RA_OF_ASC_NODE":"217.8165","ARG_OF_PERICENTER":"57.8365","BSTAR":"0.00013010000000","EPOCH":"2022-10-16T05:13:14.405376","INCLINATION":"53.2198","OBJECT_NAME":"STARLINK-3914","GP_ID":"215304494","PERIOD":"95.438","MEAN_MOTION_DOT":"0.00001783","MEAN_MOTION":"15.08838220","DECAY_DATE":null,"LAUNCH_DATE":"2022-05-06","TLE_LINE2":"2 52490  53.2198 217.8165 0001833  57.8365 302.2805 15.08838220 25126","OBJECT_TYPE":"PAYLOAD","PERIAPSIS":"538.483","EPHEMERIS_TYPE":"0","APOAPSIS":"541.019","ECCENTRICITY":"0.00018330","MEAN_ELEMENT_THEORY":"SGP4","FILE":"3617121","TLE_LINE1":"1 52490U 22049AR  22289.21752784  .00001783  00000-0  13010-3 0  9993","NORAD_CAT_ID":"52490","ELEMENT_SET_NO":"999","CLASSIFICATION_TYPE":"U","SEMIMAJOR_AXIS":"6917.886","SITE":"AFETR","MEAN_ANOMALY":"302.2805","MEAN_MOTION_DDOT":"0.0000000000000","RCS_SIZE":"LARGE","REF_FRAME":"TEME","OBJECT_ID":"2022-049AR","TIME_SYSTEM":"UTC","CENTER_NAME":"EARTH","REV_AT_EPOCH":"2512","COUNTRY_CODE":"US"},{"TLE_LINE2":"2 52491  53.2185 215.1038 0001762  46.2748 313.8389 15.08818535 25213","OBJECT_TYPE":"PAYLOAD","PERIAPSIS":"538.592","EPHEMERIS_TYPE":"0","MEAN_MOTION_DOT":"-0.00002741","MEAN_MOTION":"15.08818535","DECAY_DATE":null,"LAUNCH_DATE":"2022-05-06","INCLINATION":"53.2185","GP_ID":"215347898","OBJECT_NAME":"STARLINK-3908","PERIOD":"95.439","RA_OF_ASC_NODE":"215.1038","BSTAR":"-0.00015428000000","ARG_OF_PERICENTER":"46.2748","EPOCH":"2022-10-16T19:42:20.235456","CENTER_NAME":"EARTH","REV_AT_EPOCH":"2521","COUNTRY_CODE":"US","MEAN_MOTION_DDOT":"0.0000000000000","MEAN_ANOMALY":"313.8389","RCS_SIZE":"MEDIUM","REF_FRAME":"TEME","OBJECT_ID":"2022-049AS","TIME_SYSTEM":"UTC","TLE_LINE1":"1 52491U 22049AS  22289.82106754 -.00002741  00000-0 -15428-3 0  9993","FILE":"3617955","ELEMENT_SET_NO":"999","NORAD_CAT_ID":"52491","CLASSIFICATION_TYPE":"U","SITE":"AFETR","SEMIMAJOR_AXIS":"6917.946","ECCENTRICITY":"0.00017620","APOAPSIS":"541.030","MEAN_ELEMENT_THEORY":"SGP4"},{"NORAD_CAT_ID":"52492","ELEMENT_SET_NO":"999","FILE":"3617955","TLE_LINE1":"1 52492U 22049AT  22289.80634050 -.00004942  00000-0 -29273-3 0  9995","SITE":"AFETR","SEMIMAJOR_AXIS":"6917.936","CLASSIFICATION_TYPE":"U","ECCENTRICITY":"0.00017950","APOAPSIS":"541.043","MEAN_ELEMENT_THEORY":"SGP4","CENTER_NAME":"EARTH","COUNTRY_CODE":"US","REV_AT_EPOCH":"2521","REF_FRAME":"TEME","RCS_SIZE":"LARGE","MEAN_ANOMALY":"315.0151","MEAN_MOTION_DDOT":"0.0000000000000","TIME_SYSTEM":"UTC","OBJECT_ID":"2022-049AT","INCLINATION":"53.2175","PERIOD":"95.439","GP_ID":"215348148","OBJECT_NAME":"STARLINK-3916","RA_OF_ASC_NODE":"215.1771","EPOCH":"2022-10-16T19:21:07.819200","BSTAR":"-0.00029273000000","ARG_OF_PERICENTER":"45.0987","TLE_LINE2":"2 52492  53.2175 215.1771 0001795  45.0987 315.0151 15.08821685 25216","EPHEMERIS_TYPE":"0","PERIAPSIS":"538.560","OBJECT_TYPE":"PAYLOAD","MEAN_MOTION":"15.08821685","MEAN_MOTION_DOT":"-0.00004942","LAUNCH_DATE":"2022-05-06","DECAY_DATE":null},{"INCLINATION":"53.2191","OBJECT_NAME":"STARLINK-3883","GP_ID":"215348400","PERIOD":"95.439","RA_OF_ASC_NODE":"215.1207","BSTAR":"-0.00010538000000","ARG_OF_PERICENTER":"72.1326","EPOCH":"2022-10-16T19:37:02.319744","TLE_LINE2":"2 52493  53.2191 215.1207 0001791  72.1326 287.9861 15.08819482 25210","OBJECT_TYPE":"PAYLOAD","PERIAPSIS":"538.569","EPHEMERIS_TYPE":"0","MEAN_MOTION_DOT":"-0.00001964","MEAN_MOTION":"15.08819482","DECAY_DATE":null,"LAUNCH_DATE":"2022-05-06","TLE_LINE1":"1 52493U 22049AU  22289.81738796 -.00001964  00000-0 -10538-3 0  9994","FILE":"3617955","NORAD_CAT_ID":"52493","ELEMENT_SET_NO":"999","CLASSIFICATION_TYPE":"U","SITE":"AFETR","SEMIMAJOR_AXIS":"6917.943","ECCENTRICITY":"0.00017910","APOAPSIS":"541.047","MEAN_ELEMENT_THEORY":"SGP4","CENTER_NAME":"EARTH","REV_AT_EPOCH":"2521","COUNTRY_CODE":"US","MEAN_MOTION_DDOT":"0.0000000000000","MEAN_ANOMALY":"287.9861","REF_FRAME":"TEME","RCS_SIZE":"MEDIUM","OBJECT_ID":"2022-049AU","TIME_SYSTEM":"UTC"},{"MEAN_MOTION":"15.08818082","MEAN_MOTION_DOT":"-0.00006892","LAUNCH_DATE":"2022-05-06","DECAY_DATE":null,"TLE_LINE2":"2 52494  53.2179 215.2286 0001684  43.8761 316.2365 15.08818082 25214","EPHEMERIS_TYPE":"0","PERIAPSIS":"538.647","OBJECT_TYPE":"PAYLOAD","RA_OF_ASC_NODE":"215.2286","EPOCH":"2022-10-16T19:05:14.077248","ARG_OF_PERICENTER":"43.8761","BSTAR":"-0.00041558000000","INCLINATION":"53.2179","PERIOD":"95.439","OBJECT_NAME":"STARLINK-3857","GP_ID":"215348650","RCS_SIZE":"LARGE","REF_FRAME":"TEME","MEAN_MOTION_DDOT":"0.0000000000000","MEAN_ANOMALY":"316.2365","TIME_SYSTEM":"UTC","OBJECT_ID":"2022-049AV","CENTER_NAME":"EARTH","COUNTRY_CODE":"US","REV_AT_EPOCH":"2521","ECCENTRICITY":"0.00016840","APOAPSIS":"540.977","MEAN_ELEMENT_THEORY":"SGP4","ELEMENT_SET_NO":"999","NORAD_CAT_ID":"52494","TLE_LINE1":"1 52494U 22049AV  22289.79530182 -.00006892  00000-0 -41558-3 0  9992","FILE":"3617955","SITE":"AFETR","SEMIMAJOR_AXIS":"6917.947","CLASSIFICATION_TYPE":"U"},{"EPHEMERIS_TYPE":"0","PERIAPSIS":"538.688","OBJECT_TYPE":"PAYLOAD","TLE_LINE2":"2 52495  53.2197 216.0476 0001584  58.0015 302.1131 15.08827295 25181","LAUNCH_DATE":"2022-05-06","DECAY_DATE":null,"MEAN_MOTION":"15.08827295","MEAN_MOTION_DOT":"-0.00002557","PERIOD":"95.438","GP_ID":"215347399","OBJECT_NAME":"STARLINK-3905","INCLINATION":"53.2197","EPOCH":"2022-10-16T14:40:17.594400","ARG_OF_PERICENTER":"58.0015","BSTAR":"-0.00014267000000","RA_OF_ASC_NODE":"216.0476","COUNTRY_CODE":"US","REV_AT_EPOCH":"2518","CENTER_NAME":"EARTH","TIME_SYSTEM":"UTC","OBJECT_ID":"2022-049AW","REF_FRAME":"TEME","RCS_SIZE":"LARGE","MEAN_MOTION_DDOT":"0.0000000000000","MEAN_ANOMALY":"302.1131","SITE":"AFETR","SEMIMAJOR_AXIS":"6917.919","CLASSIFICATION_TYPE":"U","ELEMENT_SET_NO":"999","NORAD_CAT_ID":"52495","TLE_LINE1":"1 52495U 22049AW  22289.61131475 -.00002557  00000-0 -14267-3 0  9997","FILE":"3617955","MEAN_ELEMENT_THEORY":"SGP4","APOAPSIS":"540.880","ECCENTRICITY":"0.00015840"},{"FILE":"3617955","TLE_LINE1":"1 52496U 22049AX  22289.76448583 -.00000445  00000-0 -98296-5 0  9995","NORAD_CAT_ID":"52496","ELEMENT_SET_NO":"999","CLASSIFICATION_TYPE":"U","SITE":"AFETR","SEMIMAJOR_AXIS":"6917.903","ECCENTRICITY":"0.00020140","APOAPSIS":"541.161","MEAN_ELEMENT_THEORY":"SGP4","CENTER_NAME":"EARTH","REV_AT_EPOCH":"2527","COUNTRY_CODE":"US","MEAN_ANOMALY":"311.6565","MEAN_MOTION_DDOT":"0.0000000000000","RCS_SIZE":"LARGE","REF_FRAME":"TEME","OBJECT_ID":"2022-049AX","TIME_SYSTEM":"UTC","INCLINATION":"53.2169","GP_ID":"215347649","OBJECT_NAME":"STARLINK-3871","PERIOD":"95.438","RA_OF_ASC_NODE":"210.3524","ARG_OF_PERICENTER":"48.4600","BSTAR":"-0.00000982960000","EPOCH":"2022-10-16T18:20:51.575712","TLE_LINE2":"2 52496  53.2169 210.3524 0002014  48.4600 311.6565 15.08832664 25276","OBJECT_TYPE":"PAYLOAD","PERIAPSIS":"538.375","EPHEMERIS_TYPE":"0","MEAN_MOTION_DOT":"-0.00000445","MEAN_MOTION":"15.08832664","DECAY_DATE":null,"LAUNCH_DATE":"2022-05-06"},{"REV_AT_EPOCH":"2521","COUNTRY_CODE":"US","CENTER_NAME":"EARTH","OBJECT_ID":"2022-049AY","TIME_SYSTEM":"UTC","MEAN_MOTION_DDOT":"0.0000000000000","MEAN_ANOMALY":"309.0476","RCS_SIZE":"LARGE","REF_FRAME":"TEME","CLASSIFICATION_TYPE":"U","SITE":"AFETR","SEMIMAJOR_AXIS":"6917.914","TLE_LINE1":"1 52497U 22049AY  22289.80266810 -.00003225  00000-0 -18462-3 0  9996","FILE":"3617955","NORAD_CAT_ID":"52497","ELEMENT_SET_NO":"999","MEAN_ELEMENT_THEORY":"SGP4","ECCENTRICITY":"0.00022950","APOAPSIS":"541.367","PERIAPSIS":"538.192","OBJECT_TYPE":"PAYLOAD","EPHEMERIS_TYPE":"0","TLE_LINE2":"2 52497  53.2185 215.1972 0002295  51.0721 309.0476 15.08828933 25210","DECAY_DATE":null,"LAUNCH_DATE":"2022-05-06","MEAN_MOTION_DOT":"-0.00003225","MEAN_MOTION":"15.08828933","GP_ID":"215348900","OBJECT_NAME":"STARLINK-3884","PERIOD":"95.438","INCLINATION":"53.2185","ARG_OF_PERICENTER":"51.0721","BSTAR":"-0.00018462000000","EPOCH":"2022-10-16T19:15:50.523840","RA_OF_ASC_NODE":"215.1972"}];
